ONEWEB-0136             
1 47282U 20100AA  24203.29868974 -.00000135  00000+0 -40963-3 0  9995
2 47282  87.8957 129.2207 0001533  69.9305 290.1989 13.12445502173383
ONEWEB-0137             
1 47283U 20100AB  24203.33275990  .00000399  00000+0  10735-2 0  9994
2 47283  87.8952 129.2372 0001914  80.7372 279.3973 13.12442987173296
ONEWEB-0138             
1 47284U 20100AC  24203.31167033  .00000259  00000+0  68450-3 0  9994
2 47284  87.8950 129.2535 0001854  77.7878 282.3458 13.12444084173377
ONEWEB-0139             
1 47285U 20100AD  24203.35070044  .00001357  00000+0  37369-2 0  9998
2 47285  87.8953 129.2172 0002107  78.0285 282.1080 13.12434884173451
ONEWEB-0140             
1 47286U 20100AE  24203.30518118  .00000043  00000+0  83713-4 0  9990
2 47286  87.8951 129.2305 0001835  74.6545 285.4786 13.12444998173418
ONEWEB-0141             
1 47287U 20100AF  24203.35048621 -.00000232  00000+0 -67991-3 0  9994
2 47287  87.8952 129.2336 0002068  81.9700 278.1663 13.12438848173406
ONEWEB-0142             
1 47288U 20100AG  24203.31897346  .00000442  00000+0  11934-2 0  9993
2 47288  87.8953 129.2208 0001798  83.7664 276.3670 13.12444387173395
ONEWEB-0143             
1 47289U 20100AH  24203.34897693 -.00000166  00000+0 -49553-3 0  9996
2 47289  87.8954 129.2358 0002033  76.2673 283.8682 13.12442419173371
